OBJECT_NAME,OBJECT_ID,EPOCH,MEAN_MOTION,ECCENTRICITY,INCLINATION,RA_OF_ASC_NODE,ARG_OF_PERICENTER,MEAN_ANOMALY,EPHEMERIS_TYPE,CLASSIFICATION_TYPE,NORAD_CAT_ID,ELEMENT_SET_NO,REV_AT_EPOCH,BSTAR,MEAN_MOTION_DOT,MEAN_MOTION_DDOT
JILIN-1 GAOFEN 3A,2019-032C,2026-06-19T22:52:16.057632,15.32682058,.00063278,44.9756,341.7141,308.6609,51.3709,0,U,44312,999,38826,.34118697E-3,.10688E-3,0
WT 1B,2019-032G,2026-06-20T01:51:40.741632,15.27227439,.00100096,44.9719,45.1618,263.3904,96.5839,0,U,44316,999,38752,.30457601E-3,.8002E-4,0
PROX-1,2019-036A,2026-06-20T00:03:51.038784,14.90666191,.00058453,23.9947,95.4433,68.7086,291.4037,0,U,44339,999,37389,.1137728E-2,.11723E-3,0
NPSAT1,2019-036B,2026-06-20T07:09:03.328416,14.74598614,.00070014,23.9973,197.4990,243.5262,116.4516,0,U,44340,999,37295,.51613356E-3,.3765E-4,0
FORMOSAT 7-3,2019-036E,2026-06-20T05:22:21.431424,15.09814452,.00004436,23.9976,157.6392,338.8651,21.1834,0,U,44343,999,38370,.16368893E-3,.3061E-4,0
FORMOSAT 7-1,2019-036L,2026-06-19T17:08:11.556096,14.96514586,.00005955,23.9991,15.3581,182.6782,177.3716,0,U,44349,999,38503,.16265503E-3,.2196E-4,0
FORMOSAT 7-4,2019-036M,2026-06-20T01:40:38.932320,14.96507324,.00009761,23.9983,75.0632,213.7942,146.2497,0,U,44350,999,38450,.1473755E-3,.2018E-4,0
FORMOSAT 7-2,2019-036N,2026-06-20T03:48:50.122944,14.96508024,.00005186,23.9971,128.7788,194.5435,165.5051,0,U,44351,999,38403,.14134399E-3,.1948E-4,0
FORMOSAT 7-6,2019-036Q,2026-06-19T11:48:18.851040,14.96520280,.0001373,23.9990,314.0938,113.4929,246.5716,0,U,44353,999,38216,.16916727E-3,.2273E-4,0
FORMOSAT 7-5,2019-036V,2026-06-19T12:51:33.595200,14.96525333,.00003877,23.9979,252.5486,140.0151,220.0378,0,U,44358,999,38270,.1398012E-3,.1931E-4,0
METEOR-M2 2,2019-038A,2026-06-20T06:21:58.129632,14.24366747,.00019781,98.9149,158.5968,43.4360,316.6974,0,U,44387,999,36173,.45595082E-4,.6E-6,0
GLOBAL-4,2019-054E,2026-06-19T15:09:37.846656,15.64608521,.00056965,45.0041,222.2925,350.2131,9.8654,0,U,44499,999,38074,.42045724E-3,.41512E-3,0
ZY-1 02D,2019-059A,2026-06-20T06:36:15.823296,14.35615280,.00038922,98.5862,232.7282,32.6624,327.4801,0,U,44528,999,35478,.99171488E-4,.242E-5,0
TAURUS-1 (JINNIUZUO 1),2019-059C,2026-06-20T07:14:02.433984,14.72121476,.00072342,98.6426,336.3221,304.9904,55.0622,0,U,44530,999,35910,.74279192E-3,.4623E-4,0
ZHUHAI-1 03B,2019-060C,2026-06-20T06:34:20.398944,15.54236248,.00073531,97.5536,329.2059,304.9586,55.0976,0,U,44536,999,37680,.41457803E-3,.27008E-3,0
ZHUHAI-1 03D,2019-060E,2026-06-20T06:11:59.585856,15.49901345,.00065941,97.5399,321.2844,287.6870,72.3661,0,U,44538,999,37655,.52709414E-3,.2943E-3,0
ZHUHAI-1 03E,2019-060F,2026-06-20T07:05:11.095584,15.41150760,.00056577,97.5621,321.3502,22.8350,337.3146,0,U,44539,999,37624,.35968563E-3,.14835E-3,0
GAOFEN-7,2019-072A,2026-06-20T06:58:16.292640,15.21282481,.00185159,97.2423,232.6409,31.0494,329.1832,0,U,44703,999,36811,.13885164E-3,.305E-4,0
JILIN-1 GAOFEN 2A,2019-075A,2026-06-20T06:07:42.425760,15.39380509,.00073341,97.4961,255.1172,78.6346,281.5723,0,U,44777,999,36535,.31506496E-3,.12248E-3,0
NINGXIA-1 1,2019-076A,2026-06-20T07:36:21.599424,14.02038549,.00108254,45.0036,165.8653,178.4735,181.6134,0,U,44779,999,33829,.25229696E-4,-.91E-6,0
NINGXIA-1 5,2019-076E,2026-06-20T06:12:44.398944,14.02086074,.00102641,45.0031,165.4650,168.2744,191.8331,0,U,44783,999,33820,.65149E-6,-.129E-5,0
KL-ALPHA A,2019-077A,2026-06-20T07:02:04.756704,13.56043370,.00133437,88.9242,222.2255,98.5144,261.7523,0,U,44785,999,32615,.67201109E-4,.6E-6,0
CARTOSAT-3,2019-081A,2026-06-20T07:38:58.037856,15.19297947,.00134503,97.4295,233.1363,138.6216,221.6040,0,U,44804,999,36394,.1270697E-3,.2619E-4,0
JILIN-1 GAOFEN 2B,2019-086A,2026-06-20T05:45:19.489824,15.20737754,.00126727,97.4878,243.2117,312.5891,47.4274,0,U,44836,999,36095,.20282269E-3,.4401E-4,0
TIANQIN 1 (CAS-6),2019-093A,2026-06-20T07:13:25.509216,14.95443629,.00119594,97.7800,255.1183,48.3210,311.9032,0,U,44879,999,35251,.14719427E-3,.1571E-4,0
ETRSS-1,2019-093B,2026-06-20T05:45:37.647648,14.95877577,.00121652,97.7816,255.5194,49.4779,310.7499,0,U,44880,999,35251,.18942936E-3,.2062E-4,0
TIANYAN 01,2019-093C,2026-06-20T06:37:05.180160,14.86521771,.00150123,97.7525,243.4326,77.8966,282.3931,0,U,44881,999,35187,.54078682E-4,.426E-5,0
TIANYAN 02,2019-093D,2026-06-20T05:51:10.736064,15.05256248,.001381,97.7935,266.0636,19.9465,340.2298,0,U,44882,999,35307,.31963139E-3,.4512E-4,0
