JILIN-1 GAOFEN 3A       
1 44312U 19032C   26170.95296363  .00010688  00000+0  34119-3 0  9991
2 44312  44.9756 341.7141 0006327 308.6609  51.3709 15.32682058388264
WT 1B                   
1 44316U 19032G   26171.07755488  .00008002  00000+0  30458-3 0  9996
2 44316  44.9719  45.1618 0010009 263.3904  96.5839 15.27227439387523
PROX-1                  
1 44339U 19036A   26171.00267406  .00011723  00000+0  11377-2 0  9998
2 44339  23.9947  95.4433 0005845  68.7086 291.4037 14.90666191373893
NPSAT1                  
1 44340U 19036B   26171.29795519  .00003765  00000+0  51613-3 0  9997
2 44340  23.9973 197.4990 0007001 243.5262 116.4516 14.74598614372950
FORMOSAT 7-3            
1 44343U 19036E   26171.22385916  .00003061  00000+0  16369-3 0  9997
2 44343  23.9976 157.6392 0000443 338.8651  21.1834 15.09814452383703
FORMOSAT 7-1            
1 44349U 19036L   26170.71402264  .00002196  00000+0  16266-3 0  9996
2 44349  23.9991  15.3581 0000595 182.6782 177.3716 14.96514586385035
FORMOSAT 7-4            
1 44350U 19036M   26171.06989505  .00002018  00000+0  14738-3 0  9990
2 44350  23.9983  75.0632 0000976 213.7942 146.2497 14.96507324384509
FORMOSAT 7-2            
1 44351U 19036N   26171.15891346  .00001948  00000+0  14134-3 0  9997
2 44351  23.9971 128.7788 0000518 194.5435 165.5051 14.96508024384036
FORMOSAT 7-6            
1 44353U 19036Q   26170.49188485  .00002273  00000+0  16917-3 0  9991
2 44353  23.9990 314.0938 0001373 113.4929 246.5716 14.96520280382162
FORMOSAT 7-5            
1 44358U 19036V   26170.53580550  .00001931  00000+0  13980-3 0  9997
2 44358  23.9979 252.5486 0000387 140.0151 220.0378 14.96525333382700
METEOR-M2 2             
1 44387U 19038A   26171.26525613  .00000060  00000+0  45595-4 0  9991
2 44387  98.9149 158.5968 0001978  43.4360 316.6974 14.24366747361735
GLOBAL-4                
1 44499U 19054E   26170.63168804  .00041512  00000+0  42046-3 0  9992
2 44499  45.0041 222.2925 0005696 350.2131   9.8654 15.64608521380743
ZY-1 02D                
1 44528U 19059A   26171.27518314  .00000242  00000+0  99171-4 0  9993
2 44528  98.5862 232.7282 0003892  32.6624 327.4801 14.35615280354781
TAURUS-1 (JINNIUZUO 1)  
1 44530U 19059C   26171.30141706  .00004623  00000+0  74279-3 0  9995
2 44530  98.6426 336.3221 0007234 304.9904  55.0622 14.72121476359101
ZHUHAI-1 03B            
1 44536U 19060C   26171.27384721  .00027008  00000+0  41458-3 0  9990
2 44536  97.5536 329.2059 0007353 304.9586  55.0976 15.54236248376808
ZHUHAI-1 03D            
1 44538U 19060E   26171.25832854  .00029430  00000+0  52709-3 0  9997
2 44538  97.5399 321.2844 0006594 287.6870  72.3661 15.49901345376556
ZHUHAI-1 03E            
1 44539U 19060F   26171.29526731  .00014835  00000+0  35969-3 0  9998
2 44539  97.5621 321.3502 0005657  22.8350 337.3146 15.41150760376245
GAOFEN-7                
1 44703U 19072A   26171.29046635  .00003050  00000+0  13885-3 0  9994
2 44703  97.2423 232.6409 0018515  31.0494 329.1832 15.21282481368115
JILIN-1 GAOFEN 2A       
1 44777U 19075A   26171.25535215  .00012248  00000+0  31506-3 0  9990
2 44777  97.4961 255.1172 0007334  78.6346 281.5723 15.39380509365354
NINGXIA-1 1             
1 44779U 19076A   26171.31691666 -.00000091  00000+0  25230-4 0  9995
2 44779  45.0036 165.8653 0010825 178.4735 181.6134 14.02038549338291
NINGXIA-1 5             
1 44783U 19076E   26171.25884721 -.00000129  00000+0  65149-6 0  9996
2 44783  45.0031 165.4650 0010264 168.2744 191.8331 14.02086074338207
KL-ALPHA A              
1 44785U 19077A   26171.29311061  .00000060  00000+0  67201-4 0  9997
2 44785  88.9242 222.2255 0013343  98.5144 261.7523 13.56043370326153
CARTOSAT-3              
1 44804U 19081A   26171.31872729  .00002619  00000+0  12707-3 0  9992
2 44804  97.4295 233.1363 0013450 138.6216 221.6040 15.19297947363943
JILIN-1 GAOFEN 2B       
1 44836U 19086A   26171.23980891  .00004401  00000+0  20282-3 0  9991
2 44836  97.4878 243.2117 0012672 312.5891  47.4274 15.20737754360959
TIANQIN 1 (CAS-6)       
1 44879U 19093A   26171.30098969  .00001571  00000+0  14719-3 0  9993
2 44879  97.7800 255.1183 0011959  48.3210 311.9032 14.95443629352515
ETRSS-1                 
1 44880U 19093B   26171.24001907  .00002062  00000+0  18943-3 0  9993
2 44880  97.7816 255.5194 0012165  49.4779 310.7499 14.95877577352519
TIANYAN 01              
1 44881U 19093C   26171.27575440  .00000426  00000+0  54079-4 0  9998
2 44881  97.7525 243.4326 0015012  77.8966 282.3931 14.86521771351872
TIANYAN 02              
1 44882U 19093D   26171.24387426  .00004512  00000+0  31963-3 0  9997
2 44882  97.7935 266.0636 0013810  19.9465 340.2298 15.05256248353078
